CUBEBUG-2 (LO-74)       
1 39440U 13066AA  26156.80918561  .00005560  00000+0  51354-3 0  9990
2 39440  97.8908 105.7402 0059434  65.9901 294.7524 14.93668030675299
FUNCUBE-1 (AO-73)       
1 39444U 13066AE  26157.18462751  .00009267  00000+0  57636-3 0  9998
2 39444  97.8278 128.4023 0034656 239.5624 120.2179 15.09358417678008
UWE-3                   
1 39446U 13066AG  26157.38723772  .00005411  00000+0  46489-3 0  9996
2 39446  97.8694 113.3898 0049054 357.6101   2.4878 14.96939694675961
UNISAT-6                
1 40012U 14033C   26157.17385267  .00004570  00000+0  49180-3 0  9998
2 40012  97.7873 310.0813 0046460 104.5608 256.0768 14.88186398644521
DUCHIFAT-1              
1 40021U 14033M   26157.14150127  .00131825  00000+0  14668-2 0  9996
2 40021  98.0474 214.7704 0004492 136.7008 223.4602 15.62418709654029
QB50P1                  
1 40025U 14033R   26157.27496853  .00010939  00000+0  53962-3 0  9996
2 40025  98.0970 167.6573 0007005 259.7165 100.3278 15.18093440651376
LILACSAT-2              
1 40908U 15049K   26157.04825478  .00022779  00000+0  39229-3 0  9993
2 40908  97.4656 193.4688 0005322 299.3702  60.7018 15.51071560594026
FOX-1A (AO-85)          
1 40967U 15058D   26157.48628590  .00003560  00000+0  32134-3 0  9997
2 40967  64.7764 312.2377 0129885  60.7834 300.6195 14.90916336111973
CAS-2T & KS-1Q          
1 41847U 16066G   26157.50497052  .00002047  00000+0  29425-3 0  9993
2 41847  98.3816 233.3631 0342402 161.8018 199.5790 14.44659219503252
RADFXSAT (FOX-1B)       
1 43017U 17073E   26157.16080816  .00013577  00000+0  59080-3 0  9991
2 43017  97.4715  24.6017 0151244   7.4674 352.8759 15.12530755463720
DIWATA-2B               
1 43678U 18084H   26157.56634269  .00002378  00000+0  19422-3 0  9991
2 43678  98.1161 353.3142 0011956 205.2682 154.7957 15.00400151414626
ES'HAIL 2               
1 43700U 18090A   26157.56645863  .00000158  00000+0  00000+0 0  9998
2 43700   0.0157  17.2220 0001950  93.2655  14.2182  1.00273434 27571
FOX-1CLIFF (AO-95)      
1 43770U 18099N   26157.13129568  .00016192  00000+0  62215-3 0  9991
2 43770  97.4387 217.4205 0009175  36.3927 323.7934 15.26474352411538
ITASAT                  
1 43786U 18099AE  26157.41576984  .00009708  00000+0  46694-3 0  9995
2 43786  97.4030 209.1436 0013263  37.0880 323.1269 15.18921656411274
JY1SAT (JO-97)          
1 43803U 18099AX  26157.13319170  .00023609  00000+0  73456-3 0  9998
2 43803  97.4134 219.9330 0004154 316.9785  43.1132 15.33299760411935
UWE-4                   
1 43880U 18111E   26157.59884957  .00041427  00000+0  86289-3 0  9994
2 43880  97.5857  85.5068 0007550  22.5436 337.6143 15.45454015409146
TIANYAN 01              
1 44881U 19093C   26157.61123463  .00000846  00000+0  10149-3 0  9999
2 44881  97.7529 230.1007 0014788 118.4712 241.7995 14.86500931349843
RS-44 & BREEZE-KM R/B   
1 44909U 19096E   26157.52885762  .00000013  00000+0  24962-5 0  9996
2 44909  82.5218 346.7890 0217707 169.0311 191.5651 12.79748573300987
SALSAT                  
1 46495U 20068K   26157.28697036  .00010659  00000+0  37345-3 0  9991
2 46495  97.8852 159.6892 0009191 351.5700   8.5383 15.29640191313697
XW-3 (CAS-9)            
1 50466U 21131B   26157.57227808  .00000569  00000+0  18947-3 0  9990
2 50466  98.4977 250.0197 0005151 120.8958 239.2738 14.41347939233586
GREENCUBE (IO-117)      
1 53109U 22080E   26152.46502029 -.00000003  00000+0  00000+0 0  9996
2 53109  70.1435 303.7143 0008869 293.3663  66.6064  6.42583280 91055
UMKA 1 (RS40S)          
1 57172U 23091G   26157.56611786  .00008168  00000+0  37380-3 0  9994
2 57172  97.5051 216.3050 0013687 151.1060 209.0936 15.20695735162390
CUBESX-HSE 3 (RS42S)    
1 57178U 23091N   26157.58628045  .00017704  00000+0  59271-3 0  9997
2 57178  97.5091 223.0416 0012059 127.3114 232.9227 15.30945052162803
MONITOR-3 (RS58S)       
1 57180U 23091Q   26157.58756752  .00014621  00000+0  54236-3 0  9998
2 57180  97.5082 220.9574 0012951 133.6220 226.6096 15.27626498162671
MONITOR-4 (RS57S)       
1 57182U 23091S   26157.56724372  .00013347  00000+0  49400-3 0  9992
2 57182  97.5077 220.9075 0012932 133.9860 226.2448 15.27722292162671
MONITOR-2 (RS39S)       
1 57184U 23091U   26157.57412898  .00006622  00000+0  32084-3 0  9990
2 57184  97.5073 215.9262 0012240 143.8298 216.3766 15.18811055162341
SVYATOBOR 1 (RS60S)     
1 57187U 23091X   26157.57130279  .00011679  00000+0  45017-3 0  9991
2 57187  97.5089 221.3309 0010826 126.2860 233.9380 15.26433812162697
VIZARD-METEO (RS38S)    
1 57189U 23091Z   26157.59295931  .00021632  00000+0  62395-3 0  9990
2 57189  97.5090 226.8686 0008739 109.2602 250.9588 15.35686943163060
POLYTECH-UNIVERSE 3 (R*)
1 57191U 23091AB  26157.60272822  .00006005  00000+0  28920-3 0  9992
2 57191  97.5048 215.4593 0016146 161.0236 199.1603 15.19011229162340
UTMN 2 (RS27S)          
1 57203U 23091AP  26157.60968500  .00016770  00000+0  54762-3 0  9994
2 57203  97.5086 224.6863 0009458 115.1737 245.0486 15.31789251162927
