OBJECT_NAME,OBJECT_ID,EPOCH,MEAN_MOTION,ECCENTRICITY,INCLINATION,RA_OF_ASC_NODE,ARG_OF_PERICENTER,MEAN_ANOMALY,EPHEMERIS_TYPE,CLASSIFICATION_TYPE,NORAD_CAT_ID,ELEMENT_SET_NO,REV_AT_EPOCH,BSTAR,MEAN_MOTION_DOT,MEAN_MOTION_DDOT
CUBEBUG-2 (LO-74),2013-066AA,2026-06-05T19:25:13.636704,14.93668030,.00594347,97.8908,105.7402,65.9901,294.7524,0,U,39440,999,67529,.51354385E-3,.556E-4,0
FUNCUBE-1 (AO-73),2013-066AE,2026-06-06T04:25:51.816864,15.09358417,.0034656,97.8278,128.4023,239.5624,120.2179,0,U,39444,999,67800,.57636E-3,.9267E-4,0
UWE-3,2013-066AG,2026-06-06T09:17:37.339008,14.96939694,.00490549,97.8694,113.3898,357.6101,2.4878,0,U,39446,999,67596,.46488977E-3,.5411E-4,0
UNISAT-6,2014-033C,2026-06-06T04:10:20.870688,14.88186398,.00464603,97.7873,310.0813,104.5608,256.0768,0,U,40012,999,64452,.49179602E-3,.457E-4,0
DUCHIFAT-1,2014-033M,2026-06-06T03:23:45.709728,15.62418709,.00044927,98.0474,214.7704,136.7008,223.4602,0,U,40021,999,65402,.14667952E-2,.131825E-2,0
QB50P1,2014-033R,2026-06-06T06:35:57.280992,15.18093440,.00070054,98.0970,167.6573,259.7165,100.3278,0,U,40025,999,65137,.53962373E-3,.10939E-3,0
LILACSAT-2,2015-049K,2026-06-06T01:09:29.212992,15.51071560,.00053222,97.4656,193.4688,299.3702,60.7018,0,U,40908,999,59402,.3922929E-3,.22779E-3,0
FOX-1A (AO-85),2015-058D,2026-06-06T11:40:15.101760,14.90916336,.01298859,64.7764,312.2377,60.7834,300.6195,0,U,40967,999,11197,.32133896E-3,.356E-4,0
CAS-2T & KS-1Q,2016-066G,2026-06-06T12:07:09.452928,14.44659219,.03424022,98.3816,233.3631,161.8018,199.5790,0,U,41847,999,50325,.29425275E-3,.2047E-4,0
RADFXSAT (FOX-1B),2017-073E,2026-06-06T03:51:33.825024,15.12530755,.0151244,97.4715,24.6017,7.4674,352.8759,0,U,43017,999,46372,.59080475E-3,.13577E-3,0
DIWATA-2B,2018-084H,2026-06-06T13:35:32.008416,15.00400151,.00119564,98.1161,353.3142,205.2682,154.7957,0,U,43678,999,41462,.19421774E-3,.2378E-4,0
ES'HAIL 2,2018-090A,2026-06-06T13:35:42.025632,1.00273434,.00019501,0.0157,17.2220,93.2655,14.2182,0,U,43700,999,2757,0,.158E-5,0
FOX-1CLIFF (AO-95),2018-099N,2026-06-06T03:09:03.946752,15.26474352,.00091754,97.4387,217.4205,36.3927,323.7934,0,U,43770,999,41153,.62214936E-3,.16192E-3,0
ITASAT,2018-099AE,2026-06-06T09:58:42.514176,15.18921656,.00132637,97.4030,209.1436,37.0880,323.1269,0,U,43786,999,41127,.46694249E-3,.9708E-4,0
JY1SAT (JO-97),2018-099AX,2026-06-06T03:11:47.762880,15.33299760,.00041542,97.4134,219.9330,316.9785,43.1132,0,U,43803,999,41193,.73456031E-3,.23609E-3,0
UWE-4,2018-111E,2026-06-06T14:22:20.602848,15.45454015,.00075504,97.5857,85.5068,22.5436,337.6143,0,U,43880,999,40914,.8628863E-3,.41427E-3,0
TIANYAN 01,2019-093C,2026-06-06T14:40:10.672032,14.86500931,.00147882,97.7529,230.1007,118.4712,241.7995,0,U,44881,999,34984,.10149005E-3,.846E-5,0
RS-44 & BREEZE-KM R/B,2019-096E,2026-06-06T12:41:33.298368,12.79748573,.02177072,82.5218,346.7890,169.0311,191.5651,0,U,44909,999,30098,.2496201E-5,.13E-6,0
SALSAT,2020-068K,2026-06-06T06:53:14.239104,15.29640191,.00091918,97.8852,159.6892,351.5700,8.5383,0,U,46495,999,31369,.37345248E-3,.10659E-3,0
XW-3 (CAS-9),2021-131B,2026-06-06T13:44:04.826112,14.41347939,.00051511,98.4977,250.0197,120.8958,239.2738,0,U,50466,999,23358,.18946502E-3,.569E-5,0
GREENCUBE (IO-117),2022-080E,2026-06-01T11:09:37.753056,6.42583280,.00088692,70.1435,303.7143,293.3663,66.6064,0,U,53109,999,9105,0,-.3E-7,0
UMKA 1 (RS40S),2023-091G,2026-06-06T13:35:12.583104,15.20695735,.0013687,97.5051,216.3050,151.1060,209.0936,0,U,57172,999,16239,.37379527E-3,.8168E-4,0
CUBESX-HSE 3 (RS42S),2023-091N,2026-06-06T14:04:14.630880,15.30945052,.00120592,97.5091,223.0416,127.3114,232.9227,0,U,57178,999,16280,.59271025E-3,.17704E-3,0
MONITOR-3 (RS58S),2023-091Q,2026-06-06T14:06:05.833728,15.27626498,.00129517,97.5082,220.9574,133.6220,226.6096,0,U,57180,999,16267,.54236078E-3,.14621E-3,0
MONITOR-4 (RS57S),2023-091S,2026-06-06T13:36:49.857408,15.27722292,.00129329,97.5077,220.9075,133.9860,226.2448,0,U,57182,999,16267,.49399737E-3,.13347E-3,0
MONITOR-2 (RS39S),2023-091U,2026-06-06T13:46:44.743872,15.18811055,.00122406,97.5073,215.9262,143.8298,216.3766,0,U,57184,999,16234,.32084465E-3,.6622E-4,0
SVYATOBOR 1 (RS60S),2023-091X,2026-06-06T13:42:40.561056,15.26433812,.00108265,97.5089,221.3309,126.2860,233.9380,0,U,57187,999,16269,.45016756E-3,.11679E-3,0
VIZARD-METEO (RS38S),2023-091Z,2026-06-06T14:13:51.684384,15.35686943,.00087398,97.5090,226.8686,109.2602,250.9588,0,U,57189,999,16306,.62394895E-3,.21632E-3,0
POLYTECH-UNIVERSE 3 (RS46S),2023-091AB,2026-06-06T14:27:55.718208,15.19011229,.00161465,97.5048,215.4593,161.0236,199.1603,0,U,57191,999,16234,.28919507E-3,.6005E-4,0
UTMN 2 (RS27S),2023-091AP,2026-06-06T14:37:56.784000,15.31789251,.00094581,97.5086,224.6863,115.1737,245.0486,0,U,57203,999,16292,.5476162E-3,.1677E-3,0
